NOAA 1                  
1 04793U 70106A   26065.36639694 -.00000034  00000+0  53784-4 0  9990
2 04793 101.3519 104.5366 0031717 187.3652 184.6622 12.54049239527801
NOAA 2 (ITOS-D)         
1 06235U 72082A   26065.29256718 -.00000041  00000+0  33399-4 0  9990
2 06235 102.0167  82.7075 0003999  11.7454 359.4138 12.53211722442061
NOAA 3                  
1 06920U 73086A   26065.55149615 -.00000044  00000+0  18156-4 0  9999
2 06920 102.2908  78.4993 0006192 314.7635 220.0882 12.40391675369174
NOAA 4                  
1 07529U 74089A   26065.54846099 -.00000048  00000+0 -10474-4 0  9998
2 07529 102.0073  77.2459 0009140  34.7163 142.3604 12.53201606346661
NOAA 5                  
1 09057U 76077A   26065.47039995 -.00000036  00000+0  77959-4 0  9993
2 09057 102.2957  50.9603 0009781 166.5539   3.9696 12.37828286241762
TIROS N                 
1 11060U 78096A   26065.49830989  .00000228  00000+0  12844-3 0  9990
2 11060  98.4638  91.1599 0010570 174.1195 186.0108 14.19336910664189
NOAA 6                  
1 11416U 79057A   26065.34511672  .00000430  00000+0  16498-3 0  9996
2 11416  98.5755  95.5189 0009536 196.9298 163.1570 14.35430795436207
NOAA 7                  
1 12553U 81059A   26065.41482126  .00000081  00000+0  61516-4 0  9997
2 12553  98.8066 133.4935 0011196 197.2719 162.8076 14.17772523310189
NOAA 8                  
1 13923U 83022A   26065.47517056  .00000207  00000+0  97955-4 0  9994
2 13923  98.7374  78.2619 0014488 195.0887 164.9864 14.29765468236397
NOAA 9                  
1 15427U 84123A   26065.31734257  .00000169  00000+0  10709-3 0  9993
2 15427  99.1099  89.5222 0013672 281.9733  88.5420 14.17037665128859
NOAA 10                 
1 16969U 86073A   26065.48325821  .00000229  00000+0  10799-3 0  9998
2 16969  98.6998  58.8824 0011124 299.4616 224.8806 14.29142790 54742
NOAA 11                 
1 19531U 88089A   26065.81838105  .00000113  00000+0  79101-4 0  9991
2 19531  98.6091  14.9556 0010148 228.5020 131.5284 14.15819993932993
NOAA 12                 
1 21263U 91032A   26065.80795848  .00000183  00000+0  93468-4 0  9992
2 21263  98.6151  55.8541 0013080 332.0070  28.0405 14.26716533810366
NOAA 13                 
1 22739U 93050A   26065.39387805  .00000176  00000+0  11584-3 0  9997
2 22739  98.6930  13.2331 0010495  65.5349 294.6917 14.13635086678853
NOAA 14                 
1 23455U 94089A   26065.85291086  .00000111  00000+0  78989-4 0  9994
2 23455  98.5019  40.2026 0009949  24.3004 335.8638 14.14654542608737
NOAA 15                 
1 25338U 98030A   26065.82411872  .00000197  00000+0  98166-4 0  9993
2 25338  98.5166  89.1802 0009112 289.6128  70.4069 14.27111239446691
NOAA 16                 
1 26536U 00055A   26065.55511708  .00000141  00000+0  96067-4 0  9990
2 26536  98.4706  85.2212 0009463 232.0639 127.9680 14.13897179609227
